{"type": "FeatureCollection", "features": [ {"type": "Feature", "properties": {"norad_id": 30996, "name": "FENGYUN 1C DEB", "group": "fengyun-1c-debris", "lat": 62.96742326824235, "lon": 100.2930823426865, "alt_km": 796.7051623930838, "timestamp": "2025-12-22T23:36:20.993285+00:00", "meta": {"OBJECT_NAME": "FENGYUN 1C DEB", "OBJECT_ID": "1999-025BCN", "EPOCH": "2025-12-22T05:25:27.011712", "MEAN_MOTION": 14.35456812, "ECCENTRICITY": 0.00496227, "INCLINATION": 98.9441, "RA_OF_ASC_NODE": 261.5302, "ARG_OF_PERICENTER": 263.7131, "MEAN_ANOMALY": 259.543, "EPHEMERIS_TYPE": 0, "CLASSIFICATION_TYPE": "U", "NORAD_CAT_ID": 30996, "ELEMENT_SET_NO": 999, "REV_AT_EPOCH": 97699, "BSTAR": 0.00084156519, "MEAN_MOTION_DOT": 2.405e-05, "MEAN_MOTION_DDOT": 0}, "tle": {"line1": "1 30996U 99025BCN 25356.22600708  .00002405  00000+0  84157-3 0  9996", "line2": "2 30996  98.9441 261.5302 0049622 263.7131 259.5430 14.35456812976996"}}, "geometry": {"type": "Point", "coordinates": [100.2930823426865, 62.96742326824235]}}, {"type": "Feature", "properties": {"norad_id": 30998, "name": "FENGYUN 1C DEB", "group": "fengyun-1c-debris", "lat": -51.12258235771682, "lon": -110.19681244482511, "alt_km": 734.9772086923813, "timestamp": "2025-12-22T23:36:20.993295+00:00", "meta": {"OBJECT_NAME": "FENGYUN 1C DEB", "OBJECT_ID": "1999-025BCQ", "EPOCH": "2025-12-22T04:26:12.204672", "MEAN_MOTION": 14.48050479, "ECCENTRICITY": 0.00128094, "INCLINATION": 98.829, "RA_OF_ASC_NODE": 80.0844, "ARG_OF_PERICENTER": 169.5699, "MEAN_ANOMALY": 220.9049, "EPHEMERIS_TYPE": 0, "CLASSIFICATION_TYPE": "U", "NORAD_CAT_ID": 30998, "ELEMENT_SET_NO": 999, "REV_AT_EPOCH": 97327, "BSTAR": 0.0024879906, "MEAN_MOTION_DOT": 9.222e-05, "MEAN_MOTION_DDOT": 0}, "tle": {"line1": "1 30998U 99025BCQ 25356.18486348  .00009222  00000+0  24880-2 0  9995", "line2": "2 30998  98.8290  80.0844 0012809 169.5699 220.9049 14.48050479973272"}}, "geometry": {"type": "Point", "coordinates": [-110.19681244482511, -51.12258235771682]}}, {"type": "Feature", "properties": {"norad_id": 30999, "name": "FENGYUN 1C DEB", "group": "fengyun-1c-debris", "lat": 12.870436842649886, "lon": 169.5766464125391, "alt_km": 666.5201843856794, "timestamp": "2025-12-22T23:36:20.993306+00:00", "meta": {"OBJECT_NAME": "FENGYUN 1C DEB", "OBJECT_ID": "1999-025BCR", "EPOCH": "2025-12-21T17:54:35.549856", "MEAN_MOTION": 14.58463021, "ECCENTRICITY": 0.01127028, "INCLINATION": 99.0909, "RA_OF_ASC_NODE": 170.3208, "ARG_OF_PERICENTER": 310.5415, "MEAN_ANOMALY": 48.6008, "EPHEMERIS_TYPE": 0, "CLASSIFICATION_TYPE": "U", "NORAD_CAT_ID": 30999, "ELEMENT_SET_NO": 999, "REV_AT_EPOCH": 98962, "BSTAR": 0.00046078973, "MEAN_MOTION_DOT": 2.272e-05, "MEAN_MOTION_DDOT": 0}, "tle": {"line1": "1 30999U 99025BCR 25355.74624479  .00002272  00000+0  46079-3 0  9999", "line2": "2 30999  99.0909 170.3208 0112702 310.5415  48.6008 14.58463021989625"}}, "geometry": {"type": "Point", "coordinates": [169.5766464125391, 12.870436842649886]}}, {"type": "Feature", "properties": {"norad_id": 31000, "name": "FENGYUN 1C DEB", "group": "fengyun-1c-debris", "lat": 12.901074344809507, "lon": 22.264787368222198, "alt_km": 751.6922994636398, "timestamp": "2025-12-22T23:36:20.993316+00:00", "meta": {"OBJECT_NAME": "FENGYUN 1C DEB", "OBJECT_ID": "1999-025BCS", "EPOCH": "2025-12-22T08:18:23.963616", "MEAN_MOTION": 14.09663362, "ECCENTRICITY": 0.01648726, "INCLINATION": 97.5654, "RA_OF_ASC_NODE": 23.4727, "ARG_OF_PERICENTER": 38.2868, "MEAN_ANOMALY": 342.4398, "EPHEMERIS_TYPE": 0, "CLASSIFICATION_TYPE": "U", "NORAD_CAT_ID": 31000, "ELEMENT_SET_NO": 999, "REV_AT_EPOCH": 70092, "BSTAR": 0.00052548341, "MEAN_MOTION_DOT": 1.012e-05, "MEAN_MOTION_DDOT": 0}, "tle": {"line1": "1 31000U 99025BCS 25356.34611069  .00001012  00000+0  52548-3 0  9990", "line2": "2 31000  97.5654  23.4727 0164872  38.2868 342.4398 14.09663362700921"}}, "geometry": {"type": "Point", "coordinates": [22.264787368222198, 12.901074344809507]}}, {"type": "Feature", "properties": {"norad_id": 31001, "name": "FENGYUN 1C DEB", "group": "fengyun-1c-debris", "lat": -71.07020771075051, "lon": -100.78864198291333, "alt_km": 856.986772303675, "timestamp": "2025-12-22T23:36:20.993326+00:00", "meta": {"OBJECT_NAME": "FENGYUN 1C DEB", "OBJECT_ID": "1999-025BCT", "EPOCH": "2025-12-21T03:01:06.477888", "MEAN_MOTION": 14.42880653, "ECCENTRICITY": 0.01471177, "INCLINATION": 99.2718, "RA_OF_ASC_NODE": 228.7462, "ARG_OF_PERICENTER": 127.9463, "MEAN_ANOMALY": 233.5125, "EPHEMERIS_TYPE": 0, "CLASSIFICATION_TYPE": "U", "NORAD_CAT_ID": 31001, "ELEMENT_SET_NO": 999, "REV_AT_EPOCH": 98327, "BSTAR": 0.00022560539, "MEAN_MOTION_DOT": 8.02e-06, "MEAN_MOTION_DDOT": 0}, "tle": {"line1": "1 31001U 99025BCT 25355.12576942  .00000802  00000+0  22561-3 0  9994", "line2": "2 31001  99.2718 228.7462 0147117 127.9463 233.5125 14.42880653983278"}}, "geometry": {"type": "Point", "coordinates": [-100.78864198291333, -71.07020771075051]}}, {"type": "Feature", "properties": {"norad_id": 31002, "name": "FENGYUN 1C DEB", "group": "fengyun-1c-debris", "lat": 19.114619010195163, "lon": -168.25679685093806, "alt_km": 963.4043966167328, "timestamp": "2025-12-22T23:36:20.993337+00:00", "meta": {"OBJECT_NAME": "FENGYUN 1C DEB", "OBJECT_ID": "1999-025BCU", "EPOCH": "2025-12-20T21:37:46.056000", "MEAN_MOTION": 13.9920967, "ECCENTRICITY": 0.0098565, "INCLINATION": 98.885, "RA_OF_ASC_NODE": 6.6158, "ARG_OF_PERICENTER": 325.1028, "MEAN_ANOMALY": 152.4938, "EPHEMERIS_TYPE": 0, "CLASSIFICATION_TYPE": "U", "NORAD_CAT_ID": 31002, "ELEMENT_SET_NO": 999, "REV_AT_EPOCH": 95719, "BSTAR": 0.00023571, "MEAN_MOTION_DOT": 3.13e-06, "MEAN_MOTION_DDOT": 0}, "tle": {"line1": "1 31002U 99025BCU 25354.90122750  .00000313  00000+0  23571-3 0  9993", "line2": "2 31002  98.8850   6.6158 0098565 325.1028 152.4938 13.99209670957195"}}, "geometry": {"type": "Point", "coordinates": [-168.25679685093806, 19.114619010195163]}}, {"type": "Feature", "properties": {"norad_id": 31003, "name": "FENGYUN 1C DEB", "group": "fengyun-1c-debris", "lat": 15.535103976853632, "lon": 71.36757984678484, "alt_km": 839.713580725097, "timestamp": "2025-12-22T23:36:20.993347+00:00", "meta": {"OBJECT_NAME": "FENGYUN 1C DEB", "OBJECT_ID": "1999-025BCV", "EPOCH": "2025-12-20T04:06:45.999936", "MEAN_MOTION": 14.24738155, "ECCENTRICITY": 0.00419876, "INCLINATION": 98.8429, "RA_OF_ASC_NODE": 71.0165, "ARG_OF_PERICENTER": 193.6229, "MEAN_ANOMALY": 166.382, "EPHEMERIS_TYPE": 0, "CLASSIFICATION_TYPE": "U", "NORAD_CAT_ID": 31003, "ELEMENT_SET_NO": 999, "REV_AT_EPOCH": 96615, "BSTAR": 0.00091425711, "MEAN_MOTION_DOT": 2.104e-05, "MEAN_MOTION_DDOT": 0}, "tle": {"line1": "1 31003U 99025BCV 25354.17136574  .00002104  00000+0  91426-3 0  9996", "line2": "2 31003  98.8429  71.0165 0041987 193.6229 166.3820 14.24738155966153"}}, "geometry": {"type": "Point", "coordinates": [71.36757984678484, 15.535103976853632]}}, {"type": "Feature", "properties": {"norad_id": 31005, "name": "FENGYUN 1C DEB", "group": "fengyun-1c-debris", "lat": -33.661653442417474, "lon": -55.91601566740079, "alt_km": 940.7918858409403, "timestamp": "2025-12-22T23:36:20.993357+00:00", "meta": {"OBJECT_NAME": "FENGYUN 1C DEB", "OBJECT_ID": "1999-025BCX", "EPOCH": "2025-12-19T20:39:31.442112", "MEAN_MOTION": 13.83298695, "ECCENTRICITY": 0.0180827, "INCLINATION": 98.6131, "RA_OF_ASC_NODE": 127.0159, "ARG_OF_PERICENTER": 305.9328, "MEAN_ANOMALY": 207.4359, "EPHEMERIS_TYPE": 0, "CLASSIFICATION_TYPE": "U", "NORAD_CAT_ID": 31005, "ELEMENT_SET_NO": 999, "REV_AT_EPOCH": 94379, "BSTAR": 0.00095824, "MEAN_MOTION_DOT": 1.153e-05, "MEAN_MOTION_DDOT": 0}, "tle": {"line1": "1 31005U 99025BCX 25353.86078058  .00001153  00000+0  95824-3 0  9994", "line2": "2 31005  98.6131 127.0159 0180827 305.9328 207.4359 13.83298695943796"}}, "geometry": {"type": "Point", "coordinates": [-55.91601566740079, -33.661653442417474]}}, {"type": "Feature", "properties": {"norad_id": 31007, "name": "FENGYUN 1C DEB", "group": "fengyun-1c-debris", "lat": -1.1056930545408736, "lon": 168.35854693595925, "alt_km": 746.9934254739537, "timestamp": "2025-12-22T23:36:20.993367+00:00", "meta": {"OBJECT_NAME": "FENGYUN 1C DEB", "OBJECT_ID": "1999-025BCZ", "EPOCH": "2025-12-22T09:36:38.098944", "MEAN_MOTION": 14.58828959, "ECCENTRICITY": 0.00666645, "INCLINATION": 98.0879, "RA_OF_ASC_NODE": 347.948, "ARG_OF_PERICENTER": 8.2984, "MEAN_ANOMALY": 351.9302, "EPHEMERIS_TYPE": 0, "CLASSIFICATION_TYPE": "U", "NORAD_CAT_ID": 31007, "ELEMENT_SET_NO": 999, "REV_AT_EPOCH": 98235, "BSTAR": 0.0024870754, "MEAN_MOTION_DOT": 0.00011967, "MEAN_MOTION_DDOT": 0}, "tle": {"line1": "1 31007U 99025BCZ 25356.40044096  .00011967  00000+0  24871-2 0  9991", "line2": "2 31007  98.0879 347.9480 0066664   8.2984 351.9302 14.58828959982357"}}, "geometry": {"type": "Point", "coordinates": [168.35854693595925, -1.1056930545408736]}}, {"type": "Feature", "properties": {"norad_id": 31009, "name": "FENGYUN 1C DEB", "group": "fengyun-1c-debris", "lat": 76.22610638292007, "lon": -147.75519611623136, "alt_km": 896.9002031072787, "timestamp": "2025-12-22T23:36:20.993378+00:00", "meta": {"OBJECT_NAME": "FENGYUN 1C DEB", "OBJECT_ID": "1999-025BDB", "EPOCH": "2025-12-22T11:54:20.822112", "MEAN_MOTION": 14.00367101, "ECCENTRICITY": 0.00530683, "INCLINATION": 98.8966, "RA_OF_ASC_NODE": 352.0568, "ARG_OF_PERICENTER": 209.6888, "MEAN_ANOMALY": 315.1225, "EPHEMERIS_TYPE": 0, "CLASSIFICATION_TYPE": "U", "NORAD_CAT_ID": 31009, "ELEMENT_SET_NO": 999, "REV_AT_EPOCH": 95997, "BSTAR": 6.3793383e-05, "MEAN_MOTION_DOT": 5.2e-07, "MEAN_MOTION_DDOT": 0}, "tle": {"line1": "1 31009U 99025BDB 25356.49607433  .00000052  00000+0  63793-4 0  9993", "line2": "2 31009  98.8966 352.0568 0053068 209.6888 315.1225 14.00367101959974"}}, "geometry": {"type": "Point", "coordinates": [-147.75519611623136, 76.22610638292007]}}]}